id,name,categories,longitude,latitude,display_address
966Pq0W0kJhWMq2vkeYzpA,Saucy Mama's,"Food Trucks, Tacos, Hawaiian",-155.1076067224073,19.55084145722916,"18-1325 Old Volcano Rd, Inside Garden, Mountain View, HI 96771"
_TurvdX1s0A0Nlbslr62Bg,Duck Fat Food Truck,"Food Trucks, American, Sandwiches",-155.2227874111058,19.673052809354292,"Hilo, HI 96720"
eGwHTtxc6xZlhtQXpMYN-w,Ricos Tacos,"Tacos, Food Trucks",-155.2227874111058,19.673052809354292,"Hilo, HI 96720"
-uvGU-X14pVVIJhAbk5A3Q,Business Services Hawaii,Recycling Center,-155.04942397316916,19.637246939187506,"16-630 Kipimana St, Keaau, HI 96749"
7MlWid3PRl_3vy_DYSiYYA,Crusty Buns,"Food Trucks, Sandwiches, Tacos",-155.2227874111058,19.673052809354292,"Hilo, HI 96720"
WP2ZjFW41wUK0qeilF--dA,Pineapples Island Fresh Cuisine,"New American, Cocktail Bars, Hawaiian",-155.08616,19.72274,"332 Keawe St, Hilo, HI 96720"
tsUTHQj6ZBriKPQZf10DvQ,Jackie Rey's Ohana Grill Hilo,"Seafood, New American, Hawaiian",-155.08826,19.72598,"64 Keawe St, Hilo, HI 96720"
XFxvTsGbRGmQeNqvzRHskw,The Temple Bar,"Wine Bars, Beer Bar, Tapas/Small Plates",-155.0882123753573,19.726321708135565,"64 Keawe St, Ste 102, Hilo, HI 96720"
9qV9988-I90odzitG-G61w,Cafe Pesto Hilo Bay,"Pizza, Italian, Seafood",-155.085017,19.723753,"308 Kamehameha Ave, Ste 101, Hilo, HI 96720"
RDAgAM6lK9JLBXLgAisLWQ,Hilo Bay Cafe,"New American, Hawaiian, Sushi Bars",-155.070454,19.725,"123 Lihiwai St, Hilo, HI 96720"
En05unhZUZOr3QXAxL2EMw,Tina's Garden Cafe,"Thai, New American",-155.086286114896,19.7254413001025,"168 Kamehameha Ave, Hilo, HI 96720"
OCtBAGJ1OJT2NTTvwEw84A,Hawaiian Style Cafe - Hilo,"Hawaiian, Poke, Breakfast & Brunch",-155.06934,19.71287,"681 Manono St, Ste 101, Hilo, HI 96720"
2UPgIdTnV578wCbvBWD_Wg,The Seaside Restaurant and Aqua Farm,"Seafood, Hawaiian, Japanese",-155.02864345560997,19.732615354489692,"1790 Kalanianaole Ave, Hilo, HI 96720"
pRN1FFixO2RgWmPn7Qf94w,Ning's Thai Cuisine,Thai,-154.94505,19.494080996651,"15-2955 Pahoa Village Rd, Pahoa, HI 96778"
4SVrrM9LW7TXrQdBGRSb7Q,Antics Pizza,Pizza,-155.085942,19.720587,"475 Kinoole St, Hilo, HI 96720"
01AxjQvL2CMrl5dql8K0qA,Kaleo's Bar and Grill,"Hawaiian, Burgers",-154.94452,19.49422,"15-2969 Pahoa Village Rd, Pahoa, HI 96778"
InChSt3S4kV75GGp-h1Nqw,The Booch Bar,"Breakfast & Brunch, New American, Coffee & Tea",-155.08780630395222,19.725517165391487,"110 Keawe St, Hilo, HI 96720"
112Hk6sKC-IeVuARSdziZg,Suisan Fish Market,"Seafood Markets, Seafood, Poke",-155.0701728,19.7242201,"93 Lihiwai St, Hilo, HI 96720"
5PGyWhg-MNORHg7hsz3A4w,Ola Brew - Hilo,"Brewpubs, New American, American",-155.07635,19.71218,"1177 Kilauea Ave, Hilo, HI 96720"
VFnjI9z5eoQtSk-Adr4fyA,Hilo Burger Joint,"Burgers, Pubs, American",-155.078912749887,19.716491997242,"776 Kilauea Ave, Hilo, HI 96720"
woTmVDFKON5mEizpCCsZoA,Ken's House Of Pancakes,"Diners, Pancakes",-155.064721,19.722272,"1730 Kamehameha Ave, Hilo, HI 96720"
d5N6OWofKBlng9Rf_OTa9w,Hilo Town Tavern,"Music Venues, American",-155.087535,19.724778,"168 Keawe St, Hilo, HI 96720"
C7wMDYdWEdPuQ35xJ5HlYg,Lam's Garden,"Vietnamese, Chinese",-155.085543880924,19.7221113380498,"172 Kilauea Ave, Hilo, HI 96720"
-0t4y8yxk_fGwsaickfQvQ,Just Cruisin Coffee,"Coffee & Tea, Breakfast & Brunch, Sandwiches",-155.078149,19.716162,"835 Kilauea Ave, Hilo, HI 96720"
4J5mcch0dpVQXjQ0un-_cg,Moon & Turtle,"Seafood, Asian Fusion, Cocktail Bars",-155.08712,19.72525,"51 Kalakaua St, Hilo, HI 96720"
FNvHczaqHmSVIkRWkOH8pw,Popover,"Bakeries, Coffee & Tea, Cafes",-155.065444,19.706178,"399 E Kawili St, Ste 102, Hilo, HI 96720"
y7H7DReVAYaXA8fa0OWfbQ,Onomea Country Market & Cafe,"Fruits & Veggies, Cafes, Shaved Ice",-155.0971922,19.83072044528586,"28-1099 Old Mamalahoa Hwy, Pepeekeo, HI 96783"
uOXn2PwtoSzWL-yga6hU8g,Tetsumen Ramen,"Ramen, Japanese Curry",-155.06965,19.71272,"697 Manono St, Ste 103, Hilo, HI 96720"
Ww3gGByN9JoXbRgppqni_w,New Chiang Mai Thai Cuisine,Thai,-155.0879799,19.72537,"110 Kalakaua St, Hilo, HI 96720"
552xKCBRjbWUYg7KjNGKyQ,Ponds Hilo,"Hawaiian, American",-155.06179,19.72388,"135 Kalanianaole Ave, Hilo, HI 96720"
M5EuSiE5wL3MkJFwY_UlBg,Mohala’s Bayfront Fish & Chips,Fish & Chips,-155.087487845641,19.7262744088841,"50 Waianuenue Ave, Hilo, HI 96720"
xihViAqiP3xFQ9HCM0xs7A,Kawamoto Store,"Japanese, Hawaiian, Sushi Bars",-155.0789752,19.71636259372185,"784 Kilauea Ave, Hilo, HI 96720"
Tv_r4BLyn9iqQFZv_oj4eg,Restaurant Kenichi,"Asian Fusion, Japanese, Korean",-155.08006,19.717235,"684 Kilauea Ave, Hilo, HI 96720"
4xrjl8x-H5yWyXy_8-C50Q,Papajacs,New American,-155.0868,19.72609,"116 Kamehameha Ave, Hilo, HI 96720"
8FCdWyHsgom16-62If_wiQ,Pahoa Fresh Fish,"Fish & Chips, Seafood",-154.957336932421,19.5049859270427,"15-2670 Pahoa Village Rd, Pahoa, HI 96778"
966Pq0W0kJhWMq2vkeYzpA,Saucy Mama's,"Food Trucks, Tacos, Hawaiian",-155.1076067224073,19.55084145722916,"18-1325 Old Volcano Rd, Inside Garden, Mountain View, HI 96771"
leHeObOxvWOL9ZyeRJf7NA,Kamana Kitchen,Indian,-155.075672920707,19.7107785686731,"1235 Kilauea Ave, Ste 180, Hilo, HI 96720"
93hox2tnmGYqvWuOKmqJfg,Puka Puka Kitchen,"Asian Fusion, Mediterranean",-155.0856824,19.724236,"270 Kamehameha Ave, Hilo, HI 96720"
2LggrGknJRCI-kmUPxAQmg,Akaka Falls State Park,Parks,-155.152272242078,19.8538409556301,"Akaka Falls Rd, Honomu, HI 96728"
lvkvRcNQBg-p0hShvq5JPw,What's Shakin',"Breakfast & Brunch, American",-155.095225,19.824328,"27-999 Old Mamalahoa Hwy, Pepeekeo, HI 96783"
xNeqZRPYSRu5A-_Zc8h6jw,Takenoko Sushi,"Japanese, Sushi Bars",-155.06875185244402,19.712757812177024,"578 Hinano St, Manono Street Marketplace, Hilo, HI 96720"
xYubLEHun5RWq588kUfM0g,Sweet Cane Cafe,"Sandwiches, Acai Bowls, Cafes",-155.078019,19.710195,"48 Kamana St, Hilo, HI 96720"
7y8ig0LkdfDKz8gtaAtUSg,Naung Mai Thai Kitchen,"Thai, Vegetarian, Gluten-Free",-155.08672,19.72271,"86 Kilauea Ave, Hilo, HI 96720"
m7P7_44_awlR6XvAg31ctg,Paul's Place,"Breakfast & Brunch, Coffee & Tea",-155.084259033203,19.7226009368896,"132 Punahoa St, Hilo, HI 96720"
p_FBPdQYXSZZc0JXvNoUvg,Tacos Jalisco,"Food Trucks, Mexican",-155.0745291535396,19.71195814005112,"277 Kekuanaoa St, Hilo, HI 96720"
EVW8HP17PNiHr8Z0iaj5sg,Van Vietnamese Cuisine,Vietnamese,-155.0824403,19.720312244236048,"419 Kilauea Ave, Hilo, HI 96720"
i6105ZeRHPxpWwKdFlk0ZQ,Moms,"Japanese, Salad, Sushi Bars",-155.087565,19.724564,"190 Keawe St, Ste 10, Hilo, HI 96720"
vyNiHr7sczqpjU8QgDf8PQ,Vibe,Cafes,-155.06469,19.70785,"750 Kanoelehua Ave, Ste 101, Hilo, HI 96720"
qT6WDrbGdVIFMgqm0RXxDg,Pele's Kitchen,"Breakfast & Brunch, American, Hawaiian",-154.9459704460327,19.49399261301141,"15-2929 Pahoa Village Rd, Pahoa, HI 96778"
7RusJO6qjOsJ6lqTUoyu4Q,Panchos Tacos,"Tacos, Food Trucks",-154.9454773,19.4937404,"15-2942 Pahoa Village Rd, Pahoa, HI 96778"
InHzfw4JsmuHhpqgJ5BnkA,Hilo Pizza Company,"Pizza, Salad",-155.0668768630894,19.69111019902378,"2100 Kanoelehua Ave, Ste B-11, Hilo, HI 96720"
GYIw7VuVIe7tvUVWl5Dlsw,Da Beans Green Cafe & Kava Lounge,"Coffee & Tea, Cafes, Breakfast & Brunch",-155.13381,19.52819,"17-937 Volcano Rd, Mountain View, HI 96771"
ErVxMKIWspnupaKyI2Tagw,Coco Cantina,"Mexican, Cocktail Bars, Burgers",-154.95597595276112,19.503319930245443,"15-2714 Pahoa Village Rd, Ste I-3, Pāhoa, HI 96778"
0_-y333YTUX_gzyMIHNn7A,Liliuokalani Gardens,Parks,-155.067476481199,19.7272704541683,"191 Lihiwai St, Hilo, HI 96720"
7g70rskPnbsr9ZqKoWHYIA,Don's Grill,American,-155.06825,19.71534,"485 Hinano St, Hilo, HI 96720"
iez1hr1GAD80OiIfZjWkaA,Cafe 100,"Hawaiian, Burgers, Fast Food",-155.0772299,19.71427,"969 Kilauea Ave, Hilo, HI 96720"
4iKcHN-jubfp2OsbsmgJhg,The Hidden Nene,"Cocktail Bars, Tapas/Small Plates, Beer Bar",-155.0862397,19.72366164099325,"58 Furneaux Ln, Hilo, HI 96720"
Qek-U19wg32nxgwwHZFJtQ,Ratana's,"Thai, Salad, Japanese",-155.085009,19.721902,"211 Kilauea Ave, Hilo, HI 96720"
XfzE-DEyCOAXNosgfK76Iw,Millie's Deli & Snack Shop,"Delis, Sandwiches",-155.0626218,19.7231927,"94 Kalanianaole Ave, Hilo, HI 96720"
ywdqHDHtZkkIEfUlS1IX3g,Koji's Bento Korner,"Delis, Breakfast & Brunch, Burgers",-155.0843536,19.7224279,"52 Ponahawai St, Hilo, HI 96720"
e-w7uMMO0LlY_-7ISOlQEg,Liko Lehua Cafe,Hawaiian,-155.10633,19.71326,"177 Kaumana Dr, Hilo, HI 96720"
LmMzDQfggxhDHf9fziBHYQ,Pho 99,Vietnamese,-155.085764,19.7241193,"18 Furneaux Ln, Hilo, HI 96720"
S276sdN5gBOqHGXlJfRQnw,Poke N Sides @ the Hilo Farmers Market,"Poke, Hawaiian, Burgers",-155.08487,19.72264,"57 Mamo St, Hilo, HI 96720"
X9V69KOVcDJPMlFv2R4L4Q,Tin Shack Bakery,"Coffee & Tea, Bakeries, Sandwiches",-154.9437281,19.4942503,"15-1500 Akeakamai Lp, Pāhoa, HI 96778"
rmsQo7FTTKjHs3eQ_1-s4Q,5-Spice,"Specialty Food, Hawaiian, Breakfast & Brunch",-155.0669464,19.691641,"2064 Kilauea Ave, Hilo, HI 96720"
JXZviTF8RNFicsTjFI9uYA,Big Island Top Dogs,"Burgers, Hot Dogs",-155.067029220193,19.7068837182555,"811 Laukapu St, Ste 6, Hilo, HI 96720"
J4WViWLfWCb_VDMULc4t0A,WSW Steakhouse,"Steakhouses, Whiskey Bars",-155.066693,19.728168,"71 Banyan Dr, Hilo, HI 96720"
RGXRgtakimPAU4bTEFTVkQ,Dragon Kitchen Brown Rice Sushi,"Japanese, Poke, Sushi Bars",-155.085052490234,19.7235774993896,"330 Kamehameha Ave, Hilo, HI 96720"
UOP0yoQjTlfOQgJWg2aDGQ,Vegan Shop,Vegan,-155.08585,19.71973,"516 Kinoole St, Hilo, HI 96720"
VP9N1fbAmVz7GX1BkoU_Eg,Pho Viet,Vietnamese,-155.0865827,19.7227748,"80 Kilauea Ave, Hilo, HI 96720"
ISlWwFghK-OE_k-KFq_2bw,Rainbow Falls,Parks,-155.10860837045746,19.71915380173882,"967 Waianuenue Ave, Hilo, HI 96720"
4iiV_vl_T4yPEGTGccOIig,Haneul Cafe,"Korean, Cafes",-155.0655095,19.71696008025059,"417 Kalanikoa St, Hilo, HI 96720"
vghn0ZO2QTpVuQRVKvo5pQ,White Guava Cafe,"Burgers, Cafes, Hawaiian",-155.0663731117025,19.694386979481635,"54 E Puainako St, Hilo, HI 96720"
lPd1Q9gGWIGDuB7C8U14dg,Dolphin Bay Hotel,Hotels,-155.090270996094,19.7291030883789,"333 Iliahi St, Hilo, HI 96720"
lxqYUz7VFL5s2Pc-xybwxg,Kaleo's Bar and Grill,"Hawaiian, Bars, Breakfast & Brunch",-154.99309960441687,19.560196947365977,"16-110 Orchid Land Dr, Keaau, HI 96749"
MeYsBjSc4CTMasdkxMc_4w,Bangkok Villa Hilo,"Thai, Noodles, Soup",-155.0871003,19.7253971,"59 Kalakaua St, Hilo, HI 96720"
O59G5OCQ5y3BbzpTPvM7Gg,Izakaya Miyo,"Izakaya, Cocktail Bars, Tapas Bars",-155.06892,19.71304,"564 Hinano St, Hilo, HI 96720"
E2XOkS3lYY6-FnVhC-Pi4w,Lehua Restaurant,Hawaiian,-155.088612657496,19.701044991383387,"600 Imiloa Pl, Imiloa Astronomy Center, Hilo, HI 96720"
BAF2AA2cTWSU23R-VkMIZQ,Miyo's Restaurant,"Japanese, Seafood",-155.0687349,19.713009,"564 Hinano St, Hilo, HI 96720"
UOGzckX_5HvLfOYKjcrvQw,Big Island Birria Boss,"Food Stands, Mexican",-155.113983,19.87026,"28 1692 Old Mamalahoa Hwy 3, Honomu, HI 96728"
lnOxop2IS-P6fbVa2UdRSQ,Kitchen Umeko,"Sushi Bars, Japanese",-155.07554,19.70705,"14 W Lanikaula St, Ste 104, Hilo, HI 96720"
rOm1WE4UTP8qlni1R5VHIw,Hilo Lunch Shop,"Japanese, Delis, Hawaiian",-155.06652,19.7201,"421 Kalanikoa St, Hilo, HI 96720"
HGWnSu51KrTpMFh7IEZkww,KTA Super Stores - Puainako,Grocery,-155.0666781,19.693748,"50 E Puainako St, Hilo, HI 96720"
xONN8qTO6mZ3mpoyTsoEuA,Nector Cafe,"Cafes, Coffee & Tea, Ice Cream & Frozen Yogurt",-155.086181,19.724783,"216 Kamehameha Ave, Hilo, HI 96720"
P5uuvNqgGjLRCBa1UQXQXA,Loved by the Sun,"Juice Bars & Smoothies, Vegetarian, Vegan",-155.085634599574,19.7240496317265,"12 Furneaux Ln, Hilo, HI 96720"
PhsC3C66mRdZdQpovbgdxw,Sushi Ebisuya,"Japanese, Sushi Bars",-155.08532,19.72237,"179 Kilauea Ave, Hilo, HI 96720"
h3OVnnr_e4HRFI4hD7DmGQ,Coffee Girl,"Coffee & Tea, Cafes",-155.0669396716724,19.692103686736772,"2100 Kanoelehua Ave, Ste A6, Hilo, HI 96720"
wVQOlBtlz1IW8-s0sEIOsg,Peppercorn Spice House,"Noodles, Asian Fusion",-155.039419,19.621399,"16-569 Old Volcano Rd, Keaau, HI 96749"
u59x-vfjEJ2NCANL7JKhSw,Countryside Cafe,"Breakfast & Brunch, Caterers, Dinner Theater",-155.0409898,19.621841761624392,"16-586 Old Volcano Rd, Keaau, HI 96749"
vFOEU8j3XfecprJG4YGWIQ,Saucy Dogs,Hot Dogs,-155.08564987254,19.7240907147264,"14 Furneaux Ln, Hilo, HI 96720"
V2WIWMY4nFMehVS6yN4STQ,Hula Hulas,"Breakfast & Brunch, New American, Burgers",-155.064893,19.729616,"93 Banyan Dr, Hilo, HI 96720"
g2lsKtBuGcvDt78TUzRtdA,Cham Cham Korean BBQ,Korean,-155.06544,19.71672,"421 Kalanikoa St, Ste 102, Hilo, HI 96720"
iOaMSB9Y4hvK-xXerV3KGQ,Ma'ona Lunch Counter,"Burgers, Hawaiian",-155.044449860711,19.6378098609769,"16-203 Wiliama Pl, Keaau, HI 96749"
ct2aY3Hkj5bwK5m-rhXttQ,Coconut Grill,"American, Salad, Burgers",-155.06265429250664,19.723620934733695,"136 Banyan Way, Hilo Seaside Hotel, Hilo, HI 96720"
CowXyOudqFhWxR3Bm9-Flw,Kaumana Caves,Parks,-155.130405187617,19.6868513668558,"Hilo, HI 96720"
DT0F-ofsVUfA4pWt8JVTAQ,Tenkatori Hilo,"Japanese, Chicken Wings",-155.066761,19.706804301034374,"811 Laukapu St, Hilo, HI 96720"
XdwYUAlxR9iSuTc9hCuMkQ,Carlsmith Beach Park,Parks,-155.027970678621,19.7330791088927,"1827 Kalanianaole Ave, Hilo, HI 96720"
UuYOiTi6tfvH7NT78Ox5xw,Hale Hookah,"Hookah Bars, Head Shops",-155.0876187,19.7262907,"60 Waianuenue Ave, Hilo, HI 96720"
tgdg4b-HGulOToi7zCtJNA,Short n Sweet Bakery & Cafe,"Bakeries, Desserts, Cafes",-155.0759721,19.71024574328779,"1263 Kilauea Ave, Hilo, HI 96720"
cjDbxDEPed0lxh-FjcTJ-Q,Kuhio Grille,"Hawaiian, Sandwiches, Burgers",-155.079563,19.720328,"80 Pauahi St, Hilo, HI 96720"
e_sNwvFeuWJ9OEvSuXe31A,Cajun Hideaway,Cajun/Creole,-154.9451761,19.49407865251213,"15-2945 Pahoa Village Rd, Pahoa, HI 96778"
fg-VrIbi3uaYMOaM43I4sg,Island Naturals Market & Deli,"Grocery, Health Markets, Delis",-155.07591361372147,19.710908711970063,"1221 Kilauea Ave, Hilo, HI 96720"
r0RsyvT7cigz5RMOYpaoeA,Onekahakaha Beach Park,"Beaches, Parks",-155.039601,19.738193,"74 Onekahakaha Rd, Hilo, HI 96720"
45VdMaN9PRfmskCGxu0Vhg,Cronies Bar & Grill,"Hawaiian, New American, Sports Bars",-155.0868397,19.7266042,"11 Waianuenue Ave, Hilo, HI 96720"
2zENwe1b6X1oTAUmvP0wuw,Luquin’s Mexican Restaurant,"Mexican, Salad, Soup",-154.95423068132354,19.50447831040302,"15-1448 Kahakai Blvd, Pāhoa, HI 96778"
Gdw9ouYsToWRFl5X4-_Hig,The Inn At Kulaniapia Falls,"Bed & Breakfast, Hotels",-155.134463310242,19.7238475472603,"100 Kulaniapia Dr, Hilo, HI 96720"
nGh_8FzSq8PHtFFXQ8ydSA,Le Yellow Sub,"Vietnamese, Food Trucks",-155.0608779117465,19.72450621464298,"213 Kalanianaole Ave, Hilo, HI 96720"
E1OGkFW23SAhaEPgfoE3pQ,Ohana Foods,"Delis, Grocery, Convenience Stores",-155.082296,19.683428,"511 W Kawailani St, Hilo, HI 96720"
gdQhxGAG_2qYLGg7eiTZyQ,The Locavore Store,"Grocery, Fruits & Veggies",-155.08711549644488,19.72703904453347,"333 Kilauea Ave, Ste 103, Hilo, HI 96720"
4hFoOx07JqGNtAvKH2TkWQ,Tamari Japanese Lunch Shop,"Japanese, Sushi Bars",-155.085955560207,19.7238580137491,"22 Furneaux Ln, Hilo, HI 96720"
vJgZCs94xqyz8sjriRgBJA,Restaurant Osaka,"Japanese, Korean",-155.064529418945,19.7074432373047,"762 Kanoelehua Ave, Hilo, HI 96720"
ocAwpQeosV_yUGZdio4F1g,Low International Food,"Bakeries, Hawaiian",-155.08519,19.72152,"222 Kilauea Ave, Hilo, HI 96720"
LObRF_NK4-XtTF6oZsK1IQ,Sakura Sushi & Grill,"Sushi Bars, Japanese",-155.06454144432738,19.72082430989023,"200 Kanoelehua Ave, Hilo, HI 96720"
BF772tnQ0QsQb6mdlwycyw,H & K Lunch Shop,Korean,-155.075546264648,19.7070579528809,"14 W Lanikaula St, Ste 102, Hilo, HI 96720"
bFJyxodr6cRuJVBTDhwT1w,Grand Naniloa Hotel Hilo - a DoubleTree by Hilton,Hotels,-155.06489297747407,19.72959449435792,"93 Banyan Dr, Hilo, HI 96720"
5HFkmsvgjlPPnL-k-4An2g,So Juicy Hawaii - Hilo,"Juice Bars & Smoothies, Hawaiian, Desserts",-155.0868,19.72609,"116 Kamehameha Ave, Hilo, HI 96720"
iqqxV0Lr-UUfUqkUpTX2aw,King’s Vietnamese Cuisine,"Vietnamese, Food Trucks",-155.06984976271545,19.710823072181373,"839 Manono St, Hilo, HI 96720"
4n4CO3lirWrMRs8rwXGEeA,Asami's Kitchen,"Sushi Bars, Fast Food",-155.084113,19.720944,"308 Kilauea Ave, Hilo, HI 96720"
1-aWqoAWFmu3Bs1YtA7AXg,Pakalana Inn,Hotels,-155.084296,19.7225984,"132 Punahoa St, Hilo, HI 96720"
effKkJ-HgYQXufml9BURAg,Hilo Yacht Club,"Swimming Pools, Seafood, Tennis",-155.03362345317,19.736476832529,"77 Laehala St, Hilo, HI 96720"
o-37aZwXirMYnnS3Q2FD7A,Wai Oli iCafe & Lounge,"Bars, New American",-155.066871643066,19.7280488328395,"71 Banyan Dr, Hilo, HI 96720"
SETOIi9X7CslDpKJAQI_Bw,IHOP,"Breakfast & Brunch, American, Burgers",-155.06387,19.6954,"111 E Puainako St, Prince Kuhio Plaza, Hilo, HI 96720"
Zr_ZaSa8DMMQ_AsovtaHyA,Arirang Korean Kitchen,Korean,-155.06662253290415,19.706894212925533,"811 Laukapu St, Hilo, HI 96720"
xDNQXoLs5TPk2DMxqMYM3A,K's Drive-In,"American, Hawaiian, Fast Food",-155.083082346933,19.7168253816891,"194 Hualalai St, Hilo, HI 96720"
an0kMzAbqPxoBtAuvgwqiA,Nori's Saimin & Snacks,"Japanese, Hawaiian, Asian Fusion",-155.08446,19.71774,"688 Kinoole St, Ste 124, Hilo, HI 96720"
BBxOQ4pkgiAYubA_UKXFZg,Reuben's Mexican Food,Mexican,-155.084948,19.723556,"336 Kamehameha Ave, Hilo, HI 96720"
Lsqb_PYYujCvD9YeTVD7Zw,Kalo Bombs Hawaii,Hawaiian,-154.94828,19.49462,"15-2874 Pahoa Village Rd, Pāhoa, HI 96778"
6yg1VGlvnkoIOttIkFu2xQ,Liquid Life,"Vegan, Vegetarian, Juice Bars & Smoothies",-155.069726,19.712759,"697 Manono St, Hilo, HI 96720"
ewXFQyQxlOsAtJ0jVXUTTg,Hilo Hawaiian Hotel,"Hotels, Venues & Event Spaces",-155.06672668457,19.7280864715576,"71 Banyan Dr, Hilo, HI 96720"
NQR1g7tGKFlXbPDmr9qNhQ,Pho 19,"Hawaiian, Vietnamese",-155.08419,19.71703,"750 Kinoole St Hilo Hi 96720, Hilo, HI 96720"
SeetMaAJ68LFvF-q98ijqg,Yen's Cafe,"Vietnamese, Chinese",-155.0896149,19.7245502,"235 Waianuenue Ave, Hilo, HI 96720"
yuxAH1C9BGtXJgLhD6nzmg,Daiichi Ramen,"Ramen, Asian Fusion, Japanese Curry",-155.06450436078072,19.69553876412153,"111 E Puainako St, Hilo, HI 96720"
lAHP6j_Ex_LTwB_7k0wiAQ,Boogie Woogie Pizza,Pizza,-154.945601427,19.4939888827912,"15-2937 Pahoa Village Rd, Pahoa, HI 96778"
UcLiXn5trc4WsT6v9juj0w,Orchidland General Store,"Hardware Stores, Delis",-155.0048389,19.5524427,"16-125 Orchidland Dr, Keaau, HI 96749"
rRJOVcBdIIao5kybYtaeGg,Happy Valley Seafood Restaurant,Chinese,-155.07600402832,19.710168838501,"1263 Kilauea Ave, Ste 320, Hilo, HI 96720"
dV9wpVUaZ7sqjYtfEOrCsw,New Saigon Restaurant,"Vietnamese, Chinese, Thai",-155.06210131175618,19.7232557404499,"96 Kalanianaole Ave, Hilo, HI 96720"
kv_OfQb3BQIYB0qxYhE7Sw,Manas Aloha Farm,"Food Stands, Fruits & Veggies",-155.145892711642,19.8491816458642,"Aloaka Falls Rd, Pepeekeo, HI 96783"
_QKgg3iOEuS6jwEOeXt2GA,Hale Kai Hawaii Bed & Breakfast,"Hotels, Bed & Breakfast",-155.090621948242,19.7575378417969,"111 Honolii Pl, Hilo, HI 96720"
hk7sGoYlhJffjtrit92JOg,Mr Cow,"Korean, Hot Dogs",-155.0636,19.70124,"315 Makaala St, Hilo, HI 96720"
DEzDQfbUx5W8Mr-sufkGaQ,Hilo Rice Noodle Soup Restaurant,"Vietnamese, Chinese, Noodles",-155.0696407,19.6900343,"1990 Kinoole St, Hilo, HI 96720"
TG7niYnBeDdek2FRSm1Qwg,Hilo Siam Thai Restaurant,Thai,-155.0855408,19.7230911,"70 Mamo St, Hilo, HI 96720"
ual2csnAt02ciuTJ_iOmEQ,Restaurant Miwa,"Japanese, Sushi Bars",-155.075502215939,19.7105421047085,"1261 Kilauea Ave, Ste 230, Hilo, HI 96720"
srChYntN8tYPH5rc4uteIw,Aloydee's Thai Food,Thai,-155.085052,19.723577,"330 Kamehameha Ave, Hilo, HI 96720"
PkvfLN8WvHT84TrKWLQPQg,Kozmic Cones,"Ice Cream & Frozen Yogurt, Fast Food, Burgers",-155.09058,19.72389,"317 Waianuenue Ave, Hilo, HI 96720"
no3RbZFCD6xm4LJcp337MQ,Lee's Chop Suey,Hawaiian,-155.07642,19.70605,"53 W Lanikaula St, Hilo, HI 96720"
coESEKkKDGDTAUIvk3cvqQ,Tabaraka,"Lebanese, Food Trucks, Sandwiches",-155.0902291,19.7246596,"272 Waianuenue Ave, Hilo, HI 96720"
a4pstxOtKHP39FSfmo4cLQ,Thep Thai Cuisine,Thai,-154.95596992188,19.50331611958041,"15-2714 Pahoa Village Rd, Ste P1, Pahoa, HI 96778"
Nz26Gg1GZYrkmXfawAOqiA,Black Rock Cafe,Cafes,-154.948651,19.49493,"15-2872 Pahoa Village Rd, Pahoa, HI 96778"
5ncV75q76aaSh8CO2YkICA,Lava Thai Food,"Food Stands, Noodles, Thai",-155.03719116624282,19.615565780776446,"Keaau, HI 96749"
jGW4vroPGj3ZvQgUL9nS1g,SCP Hilo Hotel,Hotels,-155.06264,19.72356,"126 Banyan Way, Hilo, HI 96720"
4TWT2ZnlkVYRaIxNrb_dfA,Lava Tree Tropic Inn,Hotels,-154.9026895,19.5120973,"14-3555 Puna Rd, Pahoa, HI 96778"
RgDUO5xFi7wMrK3Y1n2TVQ,Island Naturals Market,Grocery,-154.946436099708,19.4947571164229,"15-1850 Akeakamai Lp, Pahoa, HI 96778"
EKsXsI9eFdr_NvG-iyGunQ,Ocean Front Kitchen,Chinese,-155.056191,19.726839,"555 Kalanianaole Ave, Ste A, Hilo, HI 96720"
0m2_uCFFo2ayftcMWQoSCA,1 Plus 1 Cafe,"Vietnamese, Chinese",-155.063192,19.701475,"315 Makaala St, Ste 110, Hilo, HI 96720"
_vekC9ZLpjB28W-_c8jJ1A,Wild Ginger Inn,"Hotels, Hostels",-155.08898,19.72931,"100 Puueo St, Hilo, HI 96720"
ODNKOqBG3nRkhKgrUpyUqQ,Coconut Island,Parks,-155.068565,19.729465,"77 Keliipio Pl, Hilo, HI 96720"
mrgbfzZUskQMn7dZai4uig,Aaron's Cottage,Hotels,-155.0417451,19.7348119,"54 Keokea Lp, Hilo, HI 96720"
MMNxLPMUSaSvslBhFzjxfA,Lions Den,"Diners, Bakeries, Farmers Market",-154.95995,19.51045,"15-2579 Keaau-Pahoa Rd, Pāhoa, HI 96778"
fgUyDoDEQQHlL8BIYP5tKQ,Si Si’s Tacos,"Tacos, Food Stands",-154.9930356336244,19.56085761879172,"16-1664 Keaau-Pahoa Rd, Keaau, HI 96749"
ojM5HEnrHG4O6W_SpvbUAQ,Kum Yo's Okazuya,"Korean, Hawaiian",-155.065475463867,19.7060317993164,"399 E Kawili St, Hilo, HI 96720"
O56_L6ZIXDazAH4YjvHdZA,Verna's Drive In,Hawaiian,-155.06388,19.72281,"1765 Kamehameha Ave, Hilo, HI 96720"
-VYVzak4ZJmaAU3gEN93og,Coco Cantina - Hilo,"Mexican, Bars",-155.0856272,19.7215621,"194 Kilauea Ave, Ste 105, Hilo, HI 96778"
n3m3AsvOcduu0cgdkF9EMg,Lotus Garden Hilo,Hotels,-155.0859654,19.7223653,"140 Kilauea Ave, Hilo, HI 96720"
xsSuVORP7rJVuNHfXvo7Ig,Nim’s Chiang Mai Thai Cuisine,Thai,-155.064739,19.721543,"88 Kanoelehua Ave, Hilo, HI 96720"
4w-86z58wrv_HR_VM5rnXQ,Kandi's Drive Inn,"Japanese, Hawaiian",-155.0693995,19.6847426,"56 W Kawailani St, Hilo, HI 96720"
fv1O-wKWYQhk5A1A69HFXQ,Wailuku River State Park,Parks,-155.110627,19.717954,"2-198 Rainbow Dr, Hilo, HI 96720"
k3OGFosPYLCYdMIJF6-ZhQ,Manono Mini Mart,Sandwiches,-155.070449829102,19.7160148620605,"454 Manono St, Hilo, HI 96720"
zbKKMV0TWCQSCvg1bwkDng,La Hiki Ola Kava Bar,"Music Venues, Lounges",-154.945199012014,19.4937887697271,"15-2950 Pahoa Village Rd, Pāhoa, HI 96778"
_TurvdX1s0A0Nlbslr62Bg,Duck Fat Food Truck,"Food Trucks, American, Sandwiches",-155.2227874111058,19.673052809354292,"Hilo, HI 96720"
kBFNGd3GihBNORO3-ZG7Ig,Sum Leung Chinese Kitchen,Chinese,-155.06675369101822,19.693594379666575,"50 E Puainako St, Ste 106, Kta Puainako Shopping Ctr, Hilo, HI 96720"
c-IT7FiuMwVJMPl3lJ6LBg,Frankie's Pizza,"Chicken Wings, Pizza",-155.10686673224,19.5514279314318,"18 1314 Hwy 11, Mountain View, HI 96771"
klw1B9LP1w0Y4m1LtxA8Pg,Lava Shack,Dive Bars,-154.945870824158,19.4939796182027,"15-2929 Pahoa Village Rd, Pāhoa, HI 96778"
5qtiCF0WEdO2stJ5umRkwQ,Lemongrass Restaurant,"Vietnamese, Thai, Chinese",-155.04081590294282,19.62219722357633,"16-586 Old Volcano Rd, Ste 103, Keaau, HI 96749"
IUT6YTwqf8gO0ZYCrOC4Rg,Hale Inu Sports Bar,Sports Bars,-155.0739652819722,19.71454632947158,"399 Hualani St, Hilo, HI 96720"
oeA-m1gCny5on-R_DQoBhg,Luquins 454,Mexican,-155.070666,19.716009,"454 Manono St, Hilo, HI 96720"
P-NDrVmV6_Sic3nSjUXtCg,Pahoa Pharmacy,Pharmacy,-154.9577068,19.5048837,"15-2660 Pahoa Village Rd, Pahoa Market Place, Pahoa, HI 96778"
SiDYHRTBAFsMJtG9fjwsOw,Pete's Belly Bustazs,"Burgers, Fast Food, Breakfast & Brunch",-155.09819,19.71708,"82 Puuhonu Pl, Ste 104, Hilo, HI 96720"
wagf6QJP1EH7C1HOPoUpnw,The Tiki Turtle Cafe,"Cafes, Juice Bars & Smoothies, Sandwiches",-155.1102034178477,19.71713348438074,"1099 Waianuenue Ave, Hilo, HI 96720"
1IWvYc2Rgjq52O3XzkTSVg,Pe'epe'e Falls & Boiling Pots,Parks,-155.1304287,19.713306,"Peepee Falls St, Hilo, HI 96720"
1c4BSLOqXF6p5ADLpDVCXg,Hiro's Place,"Hawaiian, Japanese, Filipino",-155.066482,19.692655,"50 E Puainako St, Ste 108, KTA Super Stores - Puainako, Hilo, HI 96720"
XqAmW3qL7dTWj_-rB_rmAg,Indo Grindz,"Food Trucks, Indonesian",-155.0875046,19.7257995,"69 Waianuenue Ave, Hilo, HI 96720"
pYXMbQKzUmy2BbifBfUudA,Fairway Grill,"Breakfast & Brunch, American",-155.0767811042587,19.674726732895746,"340 Haihai St, Hilo, HI 96720"
oTuJBwZrswvstL6vJRLv7A,Floral Mart Hawaii,"Florists, Gift Shops, Delis",-155.0842695,19.7171591,"738 Kinoole St, Hilo, HI 96720"
MEkVl3BJJvO_tNB6ufACVg,Lava Tree State Park,Parks,-154.904355723595,19.4835770219629,"Pahoa, HI 96778"
lImmjXFQknpo4mlXqijZeA,Joann's Lounge,"Lounges, Karaoke",-155.0647125,19.7216396,"88 Kanoelehua Ave, Hilo, HI 96720"
F3a5xJzZU3U0jYCnBCZ_fw,Zippy's Hilo,"Diners, Fast Food, Comfort Food",-155.06342,19.69719,"111 E Puainako St, Hilo, HI 96720"
V0tIY3IGLS8hI926g7sYQw,La Jefa Island Tacos,"Food Trucks, Tacos",-154.993569,19.560973,"16-1672 Keaau Pahoa Rd, Keaau, HI 96749"
W6ErNHPeEvkfEYEB8N-OVA,Kurtistown Cafe,"Hawaiian, Barbeque, Burgers",-155.057269,19.592985,"17-353 Volcano Rd, Kurtistown, HI 96760"
ipJG3wfw8C3-YePvjQesGA,Amigos Taqueria,Mexican,-155.08686,19.72374,"250 Keawe St, Hilo, HI 96720"
jb7rFF7Vof9lXzQ4iXpH7w,Poi Balls Hawaii,"Food Trucks, Hawaiian",-155.06991392220704,19.713710236503204,"619 Manono St, Parking Lot, Hilo, HI 96720"
oZ-5vCfP0NBkQpzdWwaxnA,No. 1 Chinese Barbeque,Chinese,-154.95806,19.50504,"15-2660 Pahoa Village Rd, Pahoa, HI 96778"
2s-svCM3YBu5Iu-6W4_yMA,Mighty Sushi,Sushi Bars,-154.958946,19.508546,"15-2660 Keaau Pahoa Rd, Pahoa Marketplace, Pahoa, HI 96778"
TZLogUU2qVHk7cj4NcAA5Q,Hawaiian Shrimp Company,"Hawaiian, Seafood",-155.062866772055,19.7016496478494,"315 Makaala St, Hilo, HI 96720"
IZTktZa4jDu8RyHJXvtlLQ,Kalapana Lava Flow,Parks,-154.979743,19.356037,"End of Route 130 Volcano National Park, Kalapana, HI 96778"
re3r0KLTUo9xl3QbrA3fRg,Kimura General Store,Grocery,-155.0923717,19.782697,"27-289 Mill Rd, Papaikou, HI 96781"
l3DjACCZrXpuivIdRYYksg,Malama Market,Grocery,-154.95658906769748,19.502303453621195,"15-2714 Pahoa Village Rd, Unit A, Pahoa, HI 96778"
3AYUNDmqiFamXYI-ARyv-w,Kohala Coffee,"Coffee & Tea, Bagels, Sandwiches",-154.95700104963964,19.503050006821052,"15-2714 Pahoa Village Rd, Ste P2, Pāhoa, HI 96778"
1D2m2BUqOPLQ0WHUuqiGyg,Margarita Village,"Dive Bars, Karaoke, Barbeque",-155.054061889648,19.7272605895996,"11 Silva St, Hilo, HI 96720"
26hMH2kx92blcNySuIGwRw,Mr K's Recycle & Redemption Center,Recycling Center,-155.0833209,19.7165074,"815 Kinoole St, Hilo, HI 96720"
2z7pqa9HsLJhkbzYMDQmwA,Texas Island BBQ,"Food Trucks, Barbeque",-154.96104172269045,19.605505250597748,"15-1594 4th Ave, Keaau, HI 96749"
EBX70U5tDLZNRkoaZ6JWsg,Leung's Chop Suey House,Chinese,-155.06453,19.70695,"530 E Lanikaula St, Hilo, HI 96720"
9CF8jy0B378jw4cvSC5u9g,Taco Aina,"Tacos, Food Trucks",-155.036376953125,19.620281219482425,"Keaau, HI 96749"
aK3BmX4MDVX0XeBARPuWwA,Hot Dog On a Stick,"Hot Dogs, American, Fast Food",-155.06330053292834,19.697686855961148,"111 E Puainako St, Ste 428, Hilo, HI 96720"
S1f4Fw4vCEFkGeXtEOzXOg,Kalbi Express,"Korean, Barbeque, Japanese",-155.062816,19.701575,"315 E Makaala St, Ste 106, Hilo, HI 96720"
0kuqJDDkx1mvSlQERyQEOw,Sunlight Cafe,Japanese,-155.07600402832,19.710168838501,"1263 Kilauea Ave, Ste 280B, Hilo, HI 96720"
WDnm1fRrjsK9mMj9qieh_Q,Genki Sushi,"Sushi Bars, Conveyor Belt Sushi",-155.064209660761,19.6990954476535,"111 E Puainako St, Hilo, HI 96720"
SMBujP4FzwqyHlrzddQQYA,MacKenzie State Park,Parks,-154.90204,19.48116,"Hwy 132, Pohoiki, HI 96778"
Ll5ZvZzkIRw0FKI7sYw79w,Foodland,"Grocery, Fruits & Veggies, Seafood Markets",-155.040420532227,19.6223430633545,"16-586 Old Volcano Rd, Ste 102, Keaau Shopping Ctr, Keaau, HI 96749"
_4hWdVBV4C7MaTiK8nDeSQ,75 Degrees cafe,"Sandwiches, Vietnamese",-155.07558,19.71033,"1261 Kilauea Ave, Ste 221, Hilo, HI 96720"
hfvapp5hM2hZM3lENLh3Gg,The Hot Dog Guy,"Hot Dogs, Food Stands, Burgers",-155.06502,19.71732,"380 Kanoelehua Ave, Hilo, HI 96720"
h-AjnVXYlsYhhdg5AGNQig,Wailoa River State Recreation Area,Parks,-155.06849,19.71642,"Piilani St, Hilo, HI 96720"
nEHnCHhnFFT-t1GmKTwuug,Aunty Yong's Place,"Bars, Karaoke",-155.08483,19.71745,"688 Kinoole St, Hilo, HI 96720"
W8-6e3-XRorzgE-W9JzOIw,Hula Lounge Lobby Bar,Bars,-155.06499,19.72962,"93 Banyan Dr, Hilo, HI 96720"
L7gNtvw-8Nkp7kDmENhFyQ,Mister D's Grillwagon,"Barbeque, Food Trucks",-155.085106031413,19.7230146156158,"57 Mamo St, Hilo, HI 96720"
to_U6MPgS0riQLhO35kOGg,Nector Cafe,"Ice Cream & Frozen Yogurt, Coffee & Tea, Cafes",-155.08835780119912,19.723844988545977,"180 Kinoole St, Hilo, HI 96720"
a2KNWH02vHUD4s5s81Vtug,Hawaii BBQ Deli,"Barbeque, Hawaiian, Seafood",-155.064058851942,19.697003460560172,"111 E Puainako St, Unit 570, Hilo, HI 96720"
IjVoL0io4yzKinZbCzxPpw,Kapoho Village Inn,"Bed & Breakfast, Hotels",-154.84604,19.50345,"14-4587 Kapoho Rd, Pahoa, HI 96778"
kiR6TM6IV5PUQfkMuq3zAQ,Waiholoku'i Garden,"Grocery, Gift Shops, Fruits & Veggies",-154.9577129872283,19.504897604294353,"15-2660 Pahoa Village Rd, Ste 201, Pāhoa, HI 96778"
qpED8Z60tq7E8yUDThWnKA,Liliuokalani Park and Gardens,Parks,-155.06944958120584,19.72579608391994,"189 Lihiwai St, Ste 151, Hilo, HI 96720"
8hLZ0ngnj131ra2gcNpaqg,Cheng's Chop Suey House,"Asian Fusion, Chinese",-155.08275167,19.71724667,"138 Hualalai St, Hilo, HI 96720"
kqNicRyVxgl5kx6tVSaW1g,Smokin Okies BBQ,"Food Trucks, Barbeque, Southern",-154.89306,19.55585,"Pāhoa, HI 96778"
F3zD8CuIgKo5cPB3jnMaWg,Papa’s Pizza,"Pizza, Food Trucks",-155.06088,19.72449,"213 Kalanianaole St, Hilo, HI 96720"
Z2QnZLe57ZJ6eBbFFAQCkw,Big Island Mexican Foods,Mexican,-155.04428467515,19.6377314688564,"16-203 Wiliama Pl, Keaau, HI 96749"
ySkC8YOq-jjG5czwQDWjBQ,Blane's Drive Inn,"Hawaiian, Fast Food",-155.0651911037979,19.701668441222488,"150 Wiwoole St, Hilo, HI 96720"
nzU3eBLgZq7CrweQK3Gw5w,Peggy's Lounge,"Hawaiian, Lounges",-155.0673769,19.7162082,"760 Piilani St, Hilo, HI 96720"
IfE0yql974kIipXMVCngAA,New China Restaurant,Chinese,-155.081802368164,19.7188549041748,"510 Kilauea Ave, Hilo, HI 96720"
jT36kQkOKDVDLazZmqfJtw,KTA Super Stores - Downtown,Grocery,-155.08582,19.72317,"321 Keawe St, Hilo, HI 96720"
5Tz431TJtRQrAo1MMYjraA,L&L Hawaiian Barbecue,"Barbeque, Hawaiian",-154.9565472930648,19.502939383764407,"15-2714 Pahoa Village Rd, Ste C-1, Pahoa, HI 96778"
TzJI2HxN1XkbvA49FyHviA,Panda Express,"Chinese, Fast Food",-155.0609,19.6987,"368 E. Makaala Street, Hilo, HI 96720"
xES95y4kxy6Ha8IWQtRM5w,Liko Lehua Cafe,"Hawaiian, Sandwiches, New American",-155.106330397104,19.713337593008795,"177 Kaumana St, Hilo, HI 96720"
Fpd8SG3FnIJqM3q1GbMTmg,Safeway,Grocery,-155.05939,19.69945,"381 E Maka'ala St, Hilo, HI 96720"
p12Q-zxfnor7e0PfXHLA2A,Shakedown Treats,"Pop-Up Restaurants, Burgers, Hot Dogs",-155.0740426362909,19.654218821153137,"800 Stainback Hwy, Hilo, HI 96720"
KRtg-FtNbJjE7iFnBu7F4g,Big Island Fusion,"Food Trucks, Burgers, Asian Fusion",-155.064796475353,19.7170240190292,"380 Kanoelehua Ave, Hilo, HI 96720"
VyZLfQkk2f6nMnkA1n1NNA,Little Caesars Pizza,"Pizza, Chicken Wings",-155.076371600846,19.7116903442747,"125 Kekuanaoa St, Ste 201, Hilo, HI 96720"
6ZU3nONFLURBW_ly5qj3wA,Hilo Grinds,Hawaiian,-155.07050867318796,19.69050904942358,"1990 Kinoole St, Ste 103, Hilo, HI 96720"
0EWIuPbZjywbr4gXJUBCwA,Hana Tako,"Food Stands, Japanese Curry",-155.067002,19.693585,"50 E Puainake St, Hilo, HI 96720"
XmV0kiqxW03xt4lLgluCQQ,Punana Leo,Preschools,-155.1036111,19.7166667,"96 Pu‘uhonu Place, Hilo, HI 96720"
YE4Z6SJWC2Xm4QSiCB9OTw,Jack in the Box,"Burgers, Fast Food, Tacos",-155.066442489624,19.6925742934388,"50 E Puainako St, Hilo, HI 96720"
3uaFeHUYIQRmAEVUOw9p5A,Amigos Cantina,"Karaoke, Bars, Music Venues",-155.0867954,19.7237878,"250 Keawe St, Ste C, Hilo, HI 96720"
2C8ydsgfDNgY3Flqcut2Pg,Hilo Reeds Bay Hotel,Hotels,-155.06306870030784,19.727600060354163,"175 Banyan Dr, Hilo, HI 96720"
HgxMTFSRGAigi8yYhhPhwA,Alibi Tavern,Bars,-155.039108,19.621731,"16-566 Keaau-Pahoa Rd, Keaau, HI 96749"
ecd54qyMuep8SI0jU6ZqkQ,Shiigi Drug,Drugstores,-155.0834961,19.7209892,"333 Kilauea Ave, Hilo, HI 96720"
u7KxzL5PBR2rwzkXhA9Swg,Taco Bell,"Fast Food, Mexican",-155.067093,19.694708,"2100 Kanoelehua Ave, Hilo, HI 96720"
A0rYrw2jr0fjFGKq3T0xBQ,Pizza Hut,"Chicken Wings, Pizza, Fast Food",-155.0407404576721,19.621918526450617,"16-586 Old Volcano Rd, Ste 1, Keaau, HI 96749"
B4s3HYIo__lt8yZSuRKt1g,Sack N Save,Grocery,-155.0669464,19.6921037,"2100 Kanoelehua Ave, Hilo, HI 96720"
ASBXd8mjV3VokSYEmnoL6Q,Leleiwi Beach Park,"Parks, Swimming Pools, Beaches",-155.015454283012,19.7343519247687,"2300 Kalanianaole Ave, Hilo, HI 96720"
OGc8Nz8HMGtSHxdmU9GkkA,Blane's drive inn,"Desserts, Noodles",-154.9937457808241,19.55912591626665,"127 Orchid Land Dr, Keaau, HI 96749"
iOUjq6AoOph7rhEcXFg1UQ,808 LOCAL FLAVAH,Hawaiian,-155.0849898,19.7236213,"330 Kamehameha Ave, Ste 102, Hilo, HI 96720"
AbaR7a18zx904lq86K2PYQ,Little Caesars Pizza,"Pizza, Chicken Wings",-155.04536127474745,19.6378721,"16-574 Kipimana St, Keaau, HI 96749"
7EvfBpA5AEi7ZO_UcFUGJA,Na’au,"Hawaiian, Personal Chefs",-155.10609498855374,19.83159800275875,"Pepeekeo, HI 96783"
wBY_7l45eyq-P-kuGN8Bjw,Ling's Chop Suey House,Chinese,-155.067106,19.691656,"2100 Kanoelehua Ave, Hilo, HI 96720"
YO14nJRmwfFjG2ieszseSw,Plates Of Aloha,"Food Trucks, Tacos",-155.6694085,20.0215814,"65-1214 Lindsay Rd, Waimea, HI 96743"
XYNfRfKzqeEQfGdg_3aEWA,Pizza Ala Slice,Pizza,-155.064099,19.696983,"111 E Puainako St, Hilo, HI 96720"
eCrhC3zl0O6mfkB4qtpEVA,The Honey Hut,"Food Trucks, Breakfast & Brunch",-155.1124031536816,19.86954583430312,"Honomu, HI 96728"
5fz8izmX7qEZZg_WwFf9VQ,Sack N Save,Grocery,-155.088367669248,19.722844745218524,"250 Kinoole St, Hilo, HI 96720"
2Y9n0Vl7dBZdMoAwxecJrw,Thai Smile,"Thai, Food Trucks",-155.087936401367,19.7178401947021,"Hilo, HI 96720"
Jlr2Zn6rbbXrrxZ2mL8oQQ,St. Joseph School,Middle Schools & High Schools,-155.08429,19.71358,"1000 Ululani St, Hilo, HI 96720"
rXXL_iT-6XVowj-kuNb_lA,Karuna Foods,"Food Stands, Vegan",-154.971048688288,19.3613411524922,"12 Kalapana-Kapoho Rd, Pāhoa, HI 96778"
zAYfhdE_2MR5OCp9QSQU1g,L&L Hawaiian Barbecue,"Barbeque, Hawaiian",-155.08718,19.72175,"348 Kinoole St, Hilo, HI 96720"
T9HD6Ouqjd5D9vJZGq0FnQ,Wailoa Grill,"Fast Food, Salad, Sandwiches",-155.070273,19.723879,"93 Lihiwai St, Hilo, HI 96720"
oNapA9Yj75PX5YFR9ZVrtQ,Popeyes Louisiana Kitchen,"Chicken Wings, Fast Food",-154.95567676860128,19.502841625153614,"15-2714 Pahoa Village Rd, Pāhoa, HI 96778"
HTQO2HZyLKq7q5-VsZ-8jw,Hilo Union School,Elementary Schools,-155.0918167516485,19.72330014042115,"506 Waianuenue Ave, Hilo, HI 96720"
QI4gsj6k93d6pFFPE8w3ZA,Da Beans Green,Cafes,-154.9454773,19.4937404,"15-2942 Pahoa Village Rd, Pāhoa, HI 96778"
JLxzUpCkeDAvEFImFq3wlg,Sunlight Express,"Juice Bars & Smoothies, Hawaiian, Filipino",-155.063247547861,19.6975398977595,"111 E Puainako St, Hilo, HI 96720"
N7vnogo4f6QSJs8xeJ_pGg,Waiakea High School,Middle Schools & High Schools,-155.0775173,19.7006353,"155 W Kawili St, Hilo, HI 96720"
A6_ekpeZnzgbt9hCQHGtFQ,Center Plate,Diners,-155.039638,19.714613,"2450 Kekuanaoa St, Hilo, HI 96720"
-kBK8Udyll8BQxY8RPe9qw,Waiakeawaena Elementary School,"Elementary Schools, Middle Schools & High Schools",-155.068218,19.683423,"2420 Kilauea Ave, Hilo, HI 96720"
jzOQFKO7SjHGIJowOf7WaA,Anuenue's Kitchen,"Food Trucks, Hawaiian",-155.08107433746,19.7002107640964,"Hilo, HI 96720"
b3mfAWn0qDAdtHbwduWosg,Kua O Ka La Public Charter School,"Elementary Schools, Middle Schools & High Schools",-155.05403,19.67282,"345 Makalika St, Hilo, HI 96720"
ndIc1bn6woAejG-78ORpmQ,Hawaiian Paradise Park,Parks,-154.9576487568933,19.571797199639104,"15-1570 Maku'u Dr, Keaau, HI 96749"
CIdkV2H5mCXjwyikd1qEOw,McDonald's,"Fast Food, Burgers, Coffee & Tea",-155.0663614,19.6912097,"2100 Kanoelehua Ave, Hilo, HI 96720"
CuO1HcViG4b1SdKGy_s9WQ,Maona Food Truck,"Food Trucks, Burgers, Barbeque",-155.08526,19.71664,"Hilo, HI 96720"
RBGDS7uvLxZSCgp3-i0ZzA,Hawaiian Airlines Premier Club,Airport Lounges,-155.039928525399,19.7152155444586,"2450 Kekuanaoa St, Hilo, HI 96720"
78pFuoC075DZvzgt94xcNg,L&L Hawaiian Barbecue,"Barbeque, Hawaiian",-155.06513,19.69941,"315 Makaala St, Ste 106-3, Waiakea Shopping Center, Waiakea, HI 96720"
w62JTappDRc3rUSChm8Gsg,Ryan's Towing,"Towing, Recycling Center, Auto Parts & Supplies",-155.030567,19.629695,"16-376 Railroad Ave, Keaau, HI 96749"
tVKylpaR8asWGXWPPhO71A,Domino’s Pizza,"Pizza, Sandwiches, Chicken Wings",-155.063457,19.701358,"315 Makaala St, Ste 109, Hilo, HI 96720"
mdp304REO5xuxXHo3yyDOw,Hilo High School,Middle Schools & High Schools,-155.096429,19.722016,"556 Waianuenue Ave, Hilo, HI 96720"
BEedT8HFKI1dQgRL5zwU_A,Hilo Bay Hotel,Hotels,-155.063854,19.728549,"121 Banyan Dr, Hilo, HI 96720"
bAU7ODtKIMYd0hhHdATw6w,Longs Drugs,"Drugstores, Convenience Stores, Pharmacy",-154.9546139,19.5041263,"15-1454 Kahakai Blvd, Pahoa, HI 96778"
bL3Ql46d83oCWpygAABR9g,KFC,"Fast Food, Chicken Wings, Chicken Shop",-155.06387,19.6954,"111 E Puainako Rd, Hilo, HI 96720"
y9PWCON-0SfEoxTYtMT8XQ,Longs Drugs,"Drugstores, Convenience Stores, Pharmacy",-155.081,19.719,"555 Kilauea Ave, Hilo, HI 96720"
AvUIHjKv1a6IpuphDZ01Ug,Minit Stop,"Convenience Stores, Chicken Wings, Fast Food",-155.06643727319252,19.69591966896939,"26 Kekela St, Hilo, HI 96720"
Q9VLLFLjW8HZXyLRtqSyTQ,The Well - New Hope Church,"Acai Bowls, Coffee & Tea, Sandwiches",-155.10785646736622,19.669550710901056,"840 Kupulau Rd, Hilo, HI 96720"
7HROvTr9PTVIsL1_NWRLMQ,Affordable Catering & Okazuya,"Caterers, Japanese, Breakfast & Brunch",-155.06677,19.70673,"811 Laukapu St, Ste 1, Hilo, HI 96720"
s_VKFZI-tamJUpTQjVZr0w,Kaumana Drive Baptist Church,"Child Care & Day Care, Preschools, Elementary Schools",-155.1105,19.70873,"388 Kaumana Dr, Hilo, HI 96720"
_2rBthT1z5GSxhPpTo-ICw,L&L Hawaiian Barbecue,"Hawaiian, Barbeque",-155.04043,19.62203,"16-586 Old Volcano Rd, Ste 104, Keaau, HI 96749"
2ZhJ4Yv8ctwseLJVENlq8A,Executive Networking Center,Shared Office Spaces,-155.079217,19.71203,"77 Mohouli St, Ste 101, Hilo, HI 96720"
54KZwpL9fCxbA1f2yv939A,Waiakea Elementary School,Elementary Schools,-155.0746491,19.6945337,"180 W Puainako St, Hilo, HI 96720"
gEYtsWD4P-VjXskRe3NJ5Q,McDonald's,"Fast Food, Coffee & Tea, Burgers",-155.0874119,19.72321883584609,"255 Kinoole St, Hilo, HI 96720"
kIF5KDwlvcEJXsKcUucdmA,Keaau Shell Food Mart,Grocery,-155.0387299,19.6233,"16-0573 Old Volcano Rd, Keaau, HI 96749"
Pji-uluGjr6HZA5VNXf68Q,Shaka Paka,Skate Parks,-154.9961269,19.7186191,"Kapoho Coast Rd, Hilo, HI 96720"
3e18qjE5vpndDOIoU8FZxg,Domino's Pizza,"Pizza, Chicken Wings, Sandwiches",-154.9553956452826,19.502412147978298,"15-2714 Pahoa Village Rd, Ste I-1, Puna Kai Shopping Center, Pāhoa, HI 96778"
jYNVA553CdsLLr0ZtfY7EQ,SweetKine808,"Food Stands, Comfort Food",-155.15961059454216,19.53575861219756,"Mountain View, HI 96771"
Y53ZsPBPrjWtWoI-msfEIg,Hilo Intermediate School,Middle Schools & High Schools,-155.095871106784,19.7202145689552,"587 Waianuenue Ave, Hilo, HI 96720"
PPe4UvPAugKbFRBQULgWMw,Kalakaua Park,Parks,-155.088025748945,19.7250422173369,"136 Kalakaua St, Hilo, HI 96720"
1pcZMYgvVoYmkZPgR3qSDQ,Hudies Hawaiian Kitchen,Hawaiian,-155.0592983,19.72582496809696,"355 Kalanianaole Ave, Hilo, HI 96720"
Uk6Uylff26dQtBK8TN5nBA,Lincoln Park,"Parks, Playgrounds",-155.086395412648,19.721301346410772,"405 Kinoole St, Hilo, HI 96720"
8Edbccq7faeYID4bn21nRg,McDonald's,"Fast Food, Burgers, Coffee & Tea",-155.039260983467,19.6220488202064,"16-565 Old Volcano Rd, Keaau, HI 96749"
G_bZ525gKoyLjPGsD3VHwA,Burger King,"Fast Food, Burgers",-154.955040961503,19.504168341273,"15-1450 Kahakai Blvd, Pahoa, HI 96778"
KvPYObY6z8mpCmWwiYyHvA,Laniakea Cafe,Cafes,-155.03948068220885,19.714766049975367,"2350 Kekuanaoa St, Hilo, HI 96720"
DRw2jXygsbaouNWLJ51kkQ,CoMechee Iceshave,"Hot Dogs, Shaved Ice, Food Trucks",-155.06089002330802,19.724547957758176,"213 Kalanianaole St, Hilo, HI 96720"
gluH88CGuMJ3efSKGPuJYw,E Komo Mai Diner Bar & Grill,"Bars, Diners",-155.06709,19.72215,"1550 Kamehameha Ave, Hilo, HI 96720"
M5thrkmcK8GnvQZQbSu7Nw,Crazy Grandmaz,Cocktail Bars,-155.08435,19.71728,"718 Kinoole St, Hilo, HI 96720"
YQUEoApLvHUrE-mQTWW2yg,Salti Gear Lemonade,"Juice Bars & Smoothies, Food Stands",-155.08186,19.71924,"Hilo, HI 96720"
QVLs760HyHEPEnLnBMuD6A,CVS Pharmacy,Pharmacy,-155.09669,19.71451,"670 Ponahawai St, Ste 213, Hilo, HI 96720"
YkArfWnGrXhM3hKkbVOt7A,At The Beach With Friends Bed & Breakfast,"Hotels, Bed & Breakfast",-155.01631,19.7326729,"369 Nene St, Hilo, HI 96720"
KbYEi2rdCHNyBjHlmpI0-w,Piilani Kitchen,"Sandwiches, Salad, Mexican",-155.09721,19.8307,"28-1099 Old Mamalahoa Hwy, Onomea Country Market, Pepeekeo, HI 96783"
Ojk7P8nawi76Fz9jwGcuEg,Whatta Waffle,"Food Trucks, Waffles",-155.0606425,19.7006939,"614 Kilauea Ave, Hilo, HI 96720"
Y0s6C7D3NqakMnc6cmQLqQ,Longs Drugs,"Drugstores, Convenience Stores, Pharmacy",-155.063334,19.69736898673304,"111 E Puainako St, Hilo, HI 96720"
-uvGU-X14pVVIJhAbk5A3Q,Business Services Hawaii,Recycling Center,-155.04942397316916,19.637246939187506,"16-630 Kipimana St, Keaau, HI 96749"
ulfGl4tdbrH05xKzh5lnog,Yum Yum Teriyaki,Korean,-155.064054890282,19.6970909352346,"111 E Puainako St, Ste 568, Hilo, HI 96720"
nFWFSqkOix-PQ65J9cZIIQ,Kolekole Beach Park,Parks,-155.119404,19.881929,"Makawao, HI 96768"
4bH2rOvRqK6--e19lzrj_g,KTA Super Stores - Puainako Pharmacy,Pharmacy,-155.06679400917997,19.694111436135803,"50 E Puainako St, Hilo, HI 96720"
JahVn4ShVuClUGtX6t2Opg,Unko Charlie’s Texas Style Barbeque,"Barbeque, Food Stands",-155.153675,19.5029091,"18-4144 Lehuanani St, Mountain View, HI 96771"
16eI5TOGJg58ysOYaKLjIw,Pacific Biodiesel Technologies,Recycling Center,-155.032104,19.581873,"16-240 Mikahala St, Keaau, HI 96749"
iOYE-2-fMX0Pg0f6yuG67A,The Rainbow Retreat Center,"Hotels, Bed & Breakfast, Guest Houses",-154.90186,19.5076,"14-635 Seaview Dr, Pahoa, HI 96778"
iEzyUF22gyoVWjP0gYzWgQ,Kealoha Beach Park,Parks,-155.033601628064,19.7351520340121,"1701 Kalanianaole Ave, Hilo, HI 96720"
it0-JPFVklqz23ULUIxKFg,Ginger & Turmeric: A Kamath's Kitchen,"Food Delivery Services, Indian",-155.08636595390172,19.68857914146088,"Hilo, HI 96720"
5F9XE09l7PY941fulepPhQ,Eastside Rubbish & Recycling,Recycling Center,-155.041795746033,19.6209493062673,"Keaau, HI 96749"
dPasMEbrDV9IUZzoB3zu7A,Subway,"Sandwiches, Fast Food",-154.957179086623,19.5050871772856,"15-2668 Keaau-pahoa Rd, Pahoa, HI 96778"
Ki5M1BScG1KrD44FlT0Fvw,CVS Pharmacy,"Drugstores, Convenience Stores, Pharmacy",-155.0391048339474,19.623430627949062,"16-529 Keaau-Pahoa Rd, Kea'au Shopping Center, Keaau, HI 96749"
egdkfWABHqOMQ3yGvygJZg,Walmart Pharmacy,Pharmacy,-155.061917,19.700296,"325 E Makaala St, Hilo, HI 96720"
SYQGPMrQPNnOpo87rMq0Mw,Minit Stop,"Convenience Stores, Chicken Wings, Fast Food",-154.993414,19.55908488265855,"16-119 Orchid Land Dr, Keaau, HI 96749"
vRRy4Wv2mrJ9lu7TczCIbQ,Subway,"Sandwiches, Fast Food",-155.0855018782,19.7216580059159,"194 Kilauea Ave, Unit 104, Hilo, HI 96720"
7aHQvAG5HrJlF1ew-rjygg,FoodSHARE,Asian Fusion,-155.12164,19.88295,"Hakalau Veterans Park, Old Mamalahoa Hwy, Hakalau, HI 96710"
i-we02LtMRNH-ecTKk9MIw,Uncle's Awa Club,Food Stands,-154.9706520848218,19.361125642965412,"125038 Kalapana - Kapoho Rd, Pāhoa, HI 96778"
HwVkxf5t0h00-3trp8f_NQ,Minit Stop,"Convenience Stores, Chicken Wings, Fast Food",-155.0646999,19.70962,"763 Leilani St, Hilo, HI 96720"
g4F4K1Pi_0D0uomRZ95lDQ,Atlas Recycling Centers,Recycling Center,-155.06821,19.70478,"30 Makaala St, Hilo, HI 96720"
4mzty6x9nL6rH4stkzHYHA,Reeds Bay Beach Park,"Parks, Beaches",-155.060713291168,19.7251907587488,"251 Banyan Dr, Hilo, HI 96720"
iIZ2UrFznp9CuK2JV-NjlQ,Triple Pine Pizza,"Pizza, Food Trucks",-155.087936401367,19.7178401947021,"Hilo, HI 96720"
GCbWV15Df74mbQhgq9NPyQ,Pu’u ‘Ō’ō Trail,"Hiking, Parks",-155.10332,19.71626,"23 State Rte 200, Hilo, HI 96720"
yK8_1NW6AHX7HLFOh_4v8Q,Aloha Wellness Inn,Hotels,-155.0899811,19.7220993,"239 Haili St, Hilo, HI 96720"
XBURV_S-sJqtLdjJt3uq_g,Burger King,"Burgers, Fast Food",-155.06067352821515,19.698928572779927,"368A E Makaala St, Hilo, HI 96720"
951mqBdxtymZ_uyPLgEm6A,Lannan A G,"Hotels, Bed & Breakfast",-155.090087890625,19.7521266937256,"30 Kahoa St, Hilo, HI 96720"
PTvkQFKDxAykockQczzWDw,University Palms,Apartments,-155.07886,19.70398,"1377 Kapiolani St, Hilo, HI 96720"
YsdgIdK0UOhkJoQz00UdWg,Machado Acres Park,Parks,-155.08726704088022,19.67579398724363,"1622 Keone St, Hilo, HI 96720"
KAax7Wx7CCJK8LU8MnWZFw,Taco Bell,"Fast Food, Mexican",-155.083997,19.720742,"326 Kilauea Ave., Hilo, HI 96720"
V9xFDwBGhe7lYnX_PDCm2A,Panda Express,"Chinese, Fast Food",-155.08343,19.72018,"376 Kilauea Ave, Hilo, HI 96720"
Xm4T6VrQlkQevAR1nvE8lw,MEZA Mexican Tamales,Food Stands,-154.9955936,19.56551200114488,"15-1603  Keaau Pahoa Rd, Keaau, HI 96749"
eZYHrsDvqI9_hCrqt0Drag,Subway,"Sandwiches, Fast Food",-155.0661941,19.6901623,"2100 D-1 Building D Kanoelehua Ave Space, Space D-1, Bldg D, Puainako Center, Hilo, HI 96720"
LqgQxTd--uY12TLmRN_8Eg,Hilo Breakwater,Parks,-155.051446929574,19.7327764094219,"1017 Kalanianaole Ave, Hilo, HI 96720"
gRFr18vKc4rY1S3dnjNnHA,SeaView Taco Stand,"Food Stands, Street Vendors",-154.91974,19.40008,"12-106 Mapuana Ave, Pāhoa, HI 96778"
K4MME3K11rQ0pcDHnay3Vw,Phil Thai,"Thai, Filipino, Bubble Tea",-155.06309896435206,19.70151248242401,"315 Makaala St, Hilo, HI 96720"
HiUF4V-YQVOqSCIMNNB74w,Bayshore Towers,"Vacation Rentals, Apartments",-155.08848,19.73161,"84 Pukihae St, Apt 305, Hilo, HI 96720"
b4OhKa-dVDXegwzCR1w0mg,DA Phat Boxx Food Truck,"Hawaiian, Food Trucks",-155.0575408819828,19.73708767875804,"HI-92, Honolulu, HI 96819"
I6wcuE7ORTBIDiyxooY02Q,Zan's Grindz,Pizza,-155.0692177,19.7060705,"275 E Kawili St, In Hilo Brewing, Hilo, HI 96720"
otkCuKA7zUGDx7oNub_Krw,Waiakea Lagoon View Apartments,Apartments,-155.076141357422,19.7130336761475,"50 Maile St, Apt A33, Hilo, HI 96720"
a52KslJ5bWi3NrMhfZCNrg,Subway,"Sandwiches, Fast Food",-155.039635,19.622353,"16-586 Old Volcano Rd P201 -203, P201 -203, Keaau, HI 96749"
48HbDoyK37JS39xulFbuxQ,Pizza Hut,"Chicken Wings, Pizza, Fast Food",-154.956325,19.5025179,"15-2714 Pahoa Village Rd, Bldg D Unit 4, Pahoa, HI 96778"
vUbYKJBFgUEHZhNjScROlQ,Waiolena Beach Park,Parks,-155.017675867231,19.733055183417,"2151-2323 Kalanianaole Ave, Hilo, HI 96720"
pUFVZy-MwWrQPCi4COiKsg,Kea'au High School,Middle Schools & High Schools,-155.03194664920326,19.61251556792016,"16-725 Keaau-Pahoa Rd, Keaau, HI 96749"
CJOMNPgPELFcHClQR0imAQ,Kaiwiki park,Parks,-155.13992,19.754199,"2391 Kaiwiki Rd, Hilo, HI 96720"
4-vHdImR4ucNLqloQ4dpKw,Keaau Middle School,Middle Schools & High Schools,-155.03767666157276,19.621430882298142,"16-565 Keaau-Pahoa Rd, Keaau, HI 96749"
IEVm90Jma0hx72lmUTCsSA,Hilo Beach House,Hotels,-155.03746,19.73669,"23 Machida Ln, Hilo, HI 96720"
xyl1Wc8OI3Megkai_G5GkA,Bayfront Park,Parks,-155.074596405029,19.7229184018805,"1273 Kamehameha Ave, Hilo, HI 96720"
2qdd5HpV7JQ9NTkJjJOEuA,@islandwoodfired,"Food Trucks, Pizza",-155.08186,19.71924,"Hilo, HI 96720"
87Xnyl_ZF8eSArOZ4IQHzQ,Christian Liberty Academy,"Religious Schools, Elementary Schools, Middle Schools & High Schools",-155.02942807308435,19.627859908094095,"16-675 Milo St, Keaau, HI 96749"
G2dFMQC2qmiAYvTiDfXVOg,Pana'ewa Park,Parks,-155.061891,19.69217,"100 Ohuohu St, Hilo, HI 96720"
U6CmG2qhrauBCD5SaUtg5w,Herbert C. Shipman Park,"Parks, Playgrounds",-155.042753219604,19.622094296274,"Highway 11, Keaau, HI 96749"
OwJMxmj6CpWgV18jq2pIAg,McDonald's,"Fast Food, Burgers, Coffee & Tea",-154.95565337312456,19.50288684792869,"15-2714 Pahoa Village Rd, Pāhoa, HI 96778"
F8zYgrvcT4d7r8YjLNXI0w,McDonald's,"Fast Food, Burgers, Coffee & Tea",-155.06195,19.69997,"325 E Makaala St, Hilo, HI 96720"
nh_oDQsLUr7Pv4nPNfbtOA,Kea'au Recycling and Reuse Center,"Thrift Stores, Recycling Center",-155.023525568679,19.6063155024382,"Hwy 130, Keaau, HI 96749"
7CC63Sl6Q6cgw2nPSy4g8g,MacKenzie State Recreation Area,Parks,-154.866919738972,19.4355703318083,"Hwy 137, Island of Hawai, HI 96778"
961rk_ecWxP8FSZAtLBLag,Waiakea Intermediate School,Middle Schools & High Schools,-155.0769095,19.69468391688574,"200 W Puainako St, Hilo, HI 96720"
6L7jlLnrX2PSHqmaIB3foA,CVS Pharmacy,Drugstores,-154.955349,19.504755,"15-1454 Kahakai Blvd, Pahoa, HI 96778"
fNJQxTh_CZO6SAe81KxOYw,Island Paradise Inn,Hotels,-154.94549,19.49416,"15-2937 Pahoa Village Rd, Pahoa, HI 96778"
2mLh_mxh0ZHncGmuB7eCRA,Dairy Queen/Orange Julius Treat Ctr,"Ice Cream & Frozen Yogurt, Fast Food, Burgers",-155.06387,19.6954,"111 E Puainako St, Prince Kuhio Plaza (Hawa'i), Hilo, HI 96720"
LW_hDur9MV9_mJMGjhLEFw,Colombian Snacks,"Colombian, Empanadas, Street Vendors",-155.08128,19.69393,"W Kawili St & W Puainako St, Hilo, HI 96720"
ugPCtw_spMzqZsNxG5Vqhg,Club Rose,Bars,-155.06459,19.72036,"200 Kanoelehua Ave, Hilo, HI 96720"
GiAFOE5mXjOGJcMMgcEkJQ,Pizza Hut,"Chicken Wings, Fast Food, Pizza",-155.06686310231532,19.711943661468897,"605 Laukapu St, Ste 103, Hilo, HI 96720"
FeFCeVpUiL80zKS0LjF6Fw,University Heights Park,Parks,-155.06671604371545,19.70554029675515,"350 Kalili St, Hilo, HI 96720"
ZSGJaEZoCVwpAZr3_yVZ9g,Hale Aloha Nazarene School,"Religious Schools, Preschools, Child Care & Day Care",-155.10482,19.67669,"595 Kupulau Rd, Hilo, HI 96720"
3LEC3-1EQORCf8Xs-rB94A,Pizza Hut,"Pizza, Chicken Wings, Fast Food",-155.069717,19.68438,"2200 Kinoole St, Hilo, HI 96720"
DIZQ5BJay0O4kMnxmcBt7A,Waiakea Villas Village,Condominiums,-155.07337,19.7133,"400 Hualani St, Ste 291, Hilo, HI 96720"
af5F-V9y-UqgqR_945ERyQ,Orchid Manor Condo Assn,Condominiums,-155.05929,19.7258299,"355 Kalanianaole Ave, Hilo, HI 96720"
tRhWcj1oDfAC-nk2-SvyjA,E Komo MAI Apts,Apartments,-155.08378,19.71609,"816 Kinoole St, Apt 115, Hilo, HI 96720"
SOSHdqfCqDjXjPWoElBUPQ,Adult Student Housing,Apartments,-155.08247,19.6955,"430 W Kawili St, Hilo, HI 96720"
hY4iCy_7G4Iu5Xi8UokLtQ,Soontaree's Deli,Delis,-155.076705932617,19.7174129486084,"101 Aupuni St, Ste 227A, Hilo, HI 96720"
Zs6NVlmZ-egHw3l3mcRapA,Hilo Val-Hala Apartments,Apartments,-155.0895967,19.7300141,"120 Puueo St, Hilo, HI 96720"
oXoB40E5DgRlV40vemG8ww,Kauhale Olu Apartments Pepeekeo,Apartments,-155.104125,19.836736,"28-2926 Kumula St, Apt U40, Pepeekeo, HI 96783"
xT9fpNptk2_-elsM4um_jQ,Ahualani Park,Parks,-155.0967874,19.6777939,"1516 Kikaha St, Hilo, HI 96720"
qnAcHoi9YcYo5FvsUh59Gw,Puna Fresh Foods,"Seafood Markets, Grocery",-155.03279,19.6162,"Keaau Shopping Ctr, Keaau, HI 96749"
js4cVfjCVOVPyhhjcORsaQ,Mo’oheau Park,Parks,-155.08423325082,19.7239427292272,"231 Kamehameha Ave, Hilo, HI 96720"
JtuGodQ_De_tb7jMS7bgvw,Hawaiian Style Pizza,"Food Trucks, Pizza",-155.076354,19.712087,"1177 Kilauea Ave, Hilo, HI 96720"
